GLOBALSTAR M023         
1 25621U 99004A   25100.75550109 -.00000083  00000+0  11814-3 0  9997
2 25621  52.0098 258.7735 0009151 341.7620 122.3603 12.62505538207304
GLOBALSTAR M040         
1 25622U 99004B   25100.78464619 -.00000097  00000+0  38966-4 0  9994
2 25622  51.9910 262.7389 0000596 176.2116 292.3105 12.62006939207048
GLOBALSTAR M036         
1 25623U 99004C   25100.33808709 -.00000038  00000+0  65122-3 0  9996
2 25623  51.9976  59.1534 0010919 284.5003 232.8160 11.86593266170924
GLOBALSTAR M038         
1 25624U 99004D   25100.79665630 -.00000077  00000+0  14922-3 0  9996
2 25624  51.9967 265.6495 0001037 260.4944 207.2857 12.32524473194025
GLOBALSTAR M022         
1 25649U 99012A   25100.43323711 -.00000050  00000+0  44826-3 0  9991
2 25649  52.0014 115.0865 0002454  43.4609 106.7591 12.02498571168224
GLOBALSTAR M041         
1 25650U 99012B   25100.39429924 -.00000077  00000+0  11387-3 0  9996
2 25650  52.0055 354.5813 0001574 156.7450 203.3458 11.96670248170165
GLOBALSTAR M046         
1 25651U 99012C   25100.26263435 -.00000091  00000+0 -24208-4 0  9990
2 25651  52.0057  68.1612 0002338 110.3512  35.6944 12.09410879175446
GLOBALSTAR M037         
1 25652U 99012D   25100.50842080 -.00000029  00000+0  41393-3 0  9990
2 25652  52.0031  30.1676 0002547  44.2144 127.3758 12.62442582202725
